{
  "type": "FeatureCollection",
  "features": [
    {
      "type": "Feature",
      "properties": {
        "norad_id": 31655,
        "name": "FENGYUN 1C DEB",
        "group": "fengyun-1c-debris",
        "lat": -54.192479619561624,
        "lon": -60.124127479169225,
        "alt_km": 1213.6976786805699,
        "timestamp": "2025-12-06T14:35:37.410080+00:00",
        "meta_object_name": "FENGYUN 1C DEB",
        "meta_object_id": "1999-025CBM",
        "meta_epoch": "2025-12-05T15:06:01.661760",
        "meta_mean_motion": 13.6380404,
        "meta_eccentricity": 0.02884805,
        "meta_inclination": 99.2858,
        "meta_ra_of_asc_node": 285.8328,
        "meta_arg_of_pericenter": 156.518,
        "meta_mean_anomaly": 23.125,
        "meta_ephemeris_type": 0,
        "meta_classification_type": "U",
        "meta_norad_cat_id": 31655,
        "meta_element_set_no": 999,
        "meta_rev_at_epoch": 59622,
        "meta_bstar": 0.0043059807,
        "meta_mean_motion_dot": 4.489e-05,
        "meta_mean_motion_ddot": 0,
        "tle_line1": "1 31655U 99025CBM 25339.62918590  .00004489  00000+0  43060-2 0  9996",
        "tle_line2": "2 31655  99.2858 285.8328 0288480 156.5180  23.1250 13.63804040596221"
      },
      "geometry": {
        "type": "Point",
        "coordinates": [
          -60.124127479169225,
          -54.192479619561624
        ]
      }
    },
    {
      "type": "Feature",
      "properties": {
        "norad_id": 31656,
        "name": "FENGYUN 1C DEB",
        "group": "fengyun-1c-debris",
        "lat": 36.015102095195296,
        "lon": -37.88742409130909,
        "alt_km": 719.727403143961,
        "timestamp": "2025-12-06T14:35:37.410090+00:00",
        "meta_object_name": "FENGYUN 1C DEB",
        "meta_object_id": "1999-025CBN",
        "meta_epoch": "2025-12-05T10:55:09.374304",
        "meta_mean_motion": 14.46832046,
        "meta_eccentricity": 0.00227424,
        "meta_inclination": 99.1933,
        "meta_ra_of_asc_node": 327.623,
        "meta_arg_of_pericenter": 72.7012,
        "meta_mean_anomaly": 81.3899,
        "meta_ephemeris_type": 0,
        "meta_classification_type": "U",
        "meta_norad_cat_id": 31656,
        "meta_element_set_no": 999,
        "meta_rev_at_epoch": 96350,
        "meta_bstar": 0.0042905952,
        "meta_mean_motion_dot": 0.00015585,
        "meta_mean_motion_ddot": 0,
        "tle_line1": "1 31656U 99025CBN 25339.45496961  .00015585  00000+0  42906-2 0  9998",
        "tle_line2": "2 31656  99.1933 327.6230 0022742  72.7012  81.3899 14.46832046963505"
      },
      "geometry": {
        "type": "Point",
        "coordinates": [
          -37.88742409130909,
          36.015102095195296
        ]
      }
    },
    {
      "type": "Feature",
      "properties": {
        "norad_id": 31657,
        "name": "FENGYUN 1C DEB",
        "group": "fengyun-1c-debris",
        "lat": -77.24494605104825,
        "lon": -10.144600128473678,
        "alt_km": 1012.491539173915,
        "timestamp": "2025-12-06T14:35:37.410100+00:00",
        "meta_object_name": "FENGYUN 1C DEB",
        "meta_object_id": "1999-025CBP",
        "meta_epoch": "2025-12-05T23:34:36.376608",
        "meta_mean_motion": 13.96939719,
        "meta_eccentricity": 0.01456048,
        "meta_inclination": 102.2173,
        "meta_ra_of_asc_node": 242.1836,
        "meta_arg_of_pericenter": 70.2331,
        "meta_mean_anomaly": 291.4456,
        "meta_ephemeris_type": 0,
        "meta_classification_type": "U",
        "meta_norad_cat_id": 31657,
        "meta_element_set_no": 999,
        "meta_rev_at_epoch": 62770,
        "meta_bstar": 0.0049638047,
        "meta_mean_motion_dot": 7.504e-05,
        "meta_mean_motion_ddot": 0,
        "tle_line1": "1 31657U 99025CBP 25339.98236547  .00007504  00000+0  49638-2 0  9990",
        "tle_line2": "2 31657 102.2173 242.1836 0145604  70.2331 291.4456 13.96939719627702"
      },
      "geometry": {
        "type": "Point",
        "coordinates": [
          -10.144600128473678,
          -77.24494605104825
        ]
      }
    },
    {
      "type": "Feature",
      "properties": {
        "norad_id": 31658,
        "name": "FENGYUN 1C DEB",
        "group": "fengyun-1c-debris",
        "lat": 14.159626193169997,
        "lon": 12.448442879352847,
        "alt_km": 1055.2940966443175,
        "timestamp": "2025-12-06T14:35:37.410110+00:00",
        "meta_object_name": "FENGYUN 1C DEB",
        "meta_object_id": "1999-025CBQ",
        "meta_epoch": "2025-11-30T13:35:01.131648",
        "meta_mean_motion": 13.98632883,
        "meta_eccentricity": 0.0215722,
        "meta_inclination": 98.1534,
        "meta_ra_of_asc_node": 184.9954,
        "meta_arg_of_pericenter": 356.7033,
        "meta_mean_anomaly": 3.2699,
        "meta_ephemeris_type": 0,
        "meta_classification_type": "U",
        "meta_norad_cat_id": 31658,
        "meta_element_set_no": 999,
        "meta_rev_at_epoch": 69646,
        "meta_bstar": 0.0024889,
        "meta_mean_motion_dot": 4.324e-05,
        "meta_mean_motion_ddot": 0,
        "tle_line1": "1 31658U 99025CBQ 25334.56598532  .00004324  00000+0  24889-2 0  9993",
        "tle_line2": "2 31658  98.1534 184.9954 0215722 356.7033   3.2699 13.98632883696462"
      },
      "geometry": {
        "type": "Point",
        "coordinates": [
          12.448442879352847,
          14.159626193169997
        ]
      }
    },
    {
      "type": "Feature",
      "properties": {
        "norad_id": 31660,
        "name": "FENGYUN 1C DEB",
        "group": "fengyun-1c-debris",
        "lat": 45.234014057723336,
        "lon": 170.79722197401307,
        "alt_km": 765.7462455413743,
        "timestamp": "2025-12-06T14:35:37.410138+00:00",
        "meta_object_name": "FENGYUN 1C DEB",
        "meta_object_id": "1999-025CBS",
        "meta_epoch": "2025-12-04T06:25:52.832640",
        "meta_mean_motion": 14.27084649,
        "meta_eccentricity": 0.0101329,
        "meta_inclination": 98.5047,
        "meta_ra_of_asc_node": 339.8449,
        "meta_arg_of_pericenter": 205.5295,
        "meta_mean_anomaly": 154.0863,
        "meta_ephemeris_type": 0,
        "meta_classification_type": "U",
        "meta_norad_cat_id": 31660,
        "meta_element_set_no": 999,
        "meta_rev_at_epoch": 7795,
        "meta_bstar": 0.0012372,
        "meta_mean_motion_dot": 3.142e-05,
        "meta_mean_motion_ddot": 0,
        "tle_line1": "1 31660U 99025CBS 25338.26797260  .00003142  00000+0  12372-2 0  9997",
        "tle_line2": "2 31660  98.5047 339.8449 0101329 205.5295 154.0863 14.27084649 77955"
      },
      "geometry": {
        "type": "Point",
        "coordinates": [
          170.79722197401307,
          45.234014057723336
        ]
      }
    },
    {
      "type": "Feature",
      "properties": {
        "norad_id": 31661,
        "name": "FENGYUN 1C DEB",
        "group": "fengyun-1c-debris",
        "lat": -54.06007063483522,
        "lon": -132.7996192583292,
        "alt_km": 772.7813515159287,
        "timestamp": "2025-12-06T14:35:37.410151+00:00",
        "meta_object_name": "FENGYUN 1C DEB",
        "meta_object_id": "1999-025CBT",
        "meta_epoch": "2025-12-05T17:52:50.346624",
        "meta_mean_motion": 14.2534715,
        "meta_eccentricity": 0.00580543,
        "meta_inclination": 98.8615,
        "meta_ra_of_asc_node": 58.756,
        "meta_arg_of_pericenter": 243.7577,
        "meta_mean_anomaly": 245.2457,
        "meta_ephemeris_type": 0,
        "meta_classification_type": "U",
        "meta_norad_cat_id": 31661,
        "meta_element_set_no": 999,
        "meta_rev_at_epoch": 95613,
        "meta_bstar": 0.0034324034,
        "meta_mean_motion_dot": 8.194e-05,
        "meta_mean_motion_ddot": 0,
        "tle_line1": "1 31661U 99025CBT 25339.74502716  .00008194  00000+0  34324-2 0  9995",
        "tle_line2": "2 31661  98.8615  58.7560 0058054 243.7577 245.2457 14.25347150956139"
      },
      "geometry": {
        "type": "Point",
        "coordinates": [
          -132.7996192583292,
          -54.06007063483522
        ]
      }
    },
    {
      "type": "Feature",
      "properties": {
        "norad_id": 31663,
        "name": "FENGYUN 1C DEB",
        "group": "fengyun-1c-debris",
        "lat": 27.49373382233503,
        "lon": -116.74684797468329,
        "alt_km": 725.7236815141432,
        "timestamp": "2025-12-06T14:35:37.410161+00:00",
        "meta_object_name": "FENGYUN 1C DEB",
        "meta_object_id": "1999-025CBV",
        "meta_epoch": "2025-12-03T11:38:28.212864",
        "meta_mean_motion": 14.76310711,
        "meta_eccentricity": 0.01897685,
        "meta_inclination": 98.838,
        "meta_ra_of_asc_node": 244.4812,
        "meta_arg_of_pericenter": 266.7407,
        "meta_mean_anomaly": 91.2075,
        "meta_ephemeris_type": 0,
        "meta_classification_type": "U",
        "meta_norad_cat_id": 31663,
        "meta_element_set_no": 999,
        "meta_rev_at_epoch": 99143,
        "meta_bstar": 0.0005527041,
        "meta_mean_motion_dot": 5.081e-05,
        "meta_mean_motion_ddot": 0,
        "tle_line1": "1 31663U 99025CBV 25337.48504876  .00005081  00000+0  55270-3 0  9991",
        "tle_line2": "2 31663  98.8380 244.4812 0189768 266.7407  91.2075 14.76310711991434"
      },
      "geometry": {
        "type": "Point",
        "coordinates": [
          -116.74684797468329,
          27.49373382233503
        ]
      }
    }
  ]
}